[{"OBJECT_NAME":"STARLINK-1154","OBJECT_ID":"2020-012W","EPOCH":"2026-03-09T02:30:04.608000","MEAN_MOTION":15.45952497,"ECCENTRICITY":0.00072447,"INCLINATION":53.0499,"RA_OF_ASC_NODE":12.8007,"ARG_OF_PERICENTER":86.205,"MEAN_ANOMALY":273.9784,"EPHEMERIS_TYPE":0,"CLASSIFICATION_TYPE":"U","NORAD_CAT_ID":45198,"ELEMENT_SET_NO":999,"REV_AT_EPOCH":33520,"BSTAR":0.0019057073,"MEAN_MOTION_DOT":0.00095128,"MEAN_MOTION_DDOT":0},{"OBJECT_NAME":"SHIYAN-32 01","OBJECT_ID":"2025-255A","EPOCH":"2026-03-09T23:03:58.906080","MEAN_MOTION":15.47052613,"ECCENTRICITY":0.00126665,"INCLINATION":52.9936,"RA_OF_ASC_NODE":122.2768,"ARG_OF_PERICENTER":323.2691,"MEAN_ANOMALY":36.7446,"EPHEMERIS_TYPE":0,"CLASSIFICATION_TYPE":"U","NORAD_CAT_ID":66376,"ELEMENT_SET_NO":999,"REV_AT_EPOCH":1883,"BSTAR":0.00048306269,"MEAN_MOTION_DOT":0.00024542,"MEAN_MOTION_DDOT":0}]
